{
  "type": "FeatureCollection",
  "features": [
    {
      "type": "Feature",
      "properties": {
        "norad_id": 37836,
        "name": "EUTELSAT 16A",
        "group": "eutelsat",
        "lat": -0.07076048397321506,
        "lon": -76.98112622556796,
        "alt_km": 35761.45204888622,
        "timestamp": "2025-12-27T11:23:19.549083+00:00",
        "meta_object_name": "EUTELSAT 16A",
        "meta_object_id": "2011-057A",
        "meta_epoch": "2025-12-27T02:48:21.791232",
        "meta_mean_motion": 1.0027196,
        "meta_eccentricity": 0.0005822,
        "meta_inclination": 0.0554,
        "meta_ra_of_asc_node": 354.2357,
        "meta_arg_of_pericenter": 283.9139,
        "meta_mean_anomaly": 235.7776,
        "meta_ephemeris_type": 0,
        "meta_classification_type": "U",
        "meta_norad_cat_id": 37836,
        "meta_element_set_no": 999,
        "meta_rev_at_epoch": 560,
        "meta_bstar": 0,
        "meta_mean_motion_dot": 1.26e-06,
        "meta_mean_motion_ddot": 0,
        "tle_line1": "1 37836U 11057A   25361.11691888  .00000126  00000+0  00000+0 0  9997",
        "tle_line2": "2 37836   0.0554 354.2357 0005822 283.9139 235.7776  1.00271960  5608"
      },
      "geometry": {
        "type": "Point",
        "coordinates": [
          -76.98112622556796,
          -0.07076048397321506
        ]
      }
    },
    {
      "type": "Feature",
      "properties": {
        "norad_id": 38992,
        "name": "EUTELSAT 21B",
        "group": "eutelsat",
        "lat": -0.07722608132925304,
        "lon": -71.38914017547775,
        "alt_km": 35772.3887421684,
        "timestamp": "2025-12-27T11:23:19.549094+00:00",
        "meta_object_name": "EUTELSAT 21B",
        "meta_object_id": "2012-062B",
        "meta_epoch": "2025-12-27T02:49:59.133792",
        "meta_mean_motion": 1.00272027,
        "meta_eccentricity": 0.0003232,
        "meta_inclination": 0.065,
        "meta_ra_of_asc_node": 354.3058,
        "meta_arg_of_pericenter": 287.9948,
        "meta_mean_anomaly": 237.6268,
        "meta_ephemeris_type": 0,
        "meta_classification_type": "U",
        "meta_norad_cat_id": 38992,
        "meta_element_set_no": 999,
        "meta_rev_at_epoch": 4810,
        "meta_bstar": 0,
        "meta_mean_motion_dot": 1.52e-06,
        "meta_mean_motion_ddot": 0,
        "tle_line1": "1 38992U 12062B   25361.11804553  .00000152  00000+0  00000+0 0  9992",
        "tle_line2": "2 38992   0.0650 354.3058 0003232 287.9948 237.6268  1.00272027 48107"
      },
      "geometry": {
        "type": "Point",
        "coordinates": [
          -71.38914017547775,
          -0.07722608132925304
        ]
      }
    },
    {
      "type": "Feature",
      "properties": {
        "norad_id": 39020,
        "name": "EUTELSAT 70B",
        "group": "eutelsat",
        "lat": -0.023951180171762204,
        "lon": -22.433723098741474,
        "alt_km": 35783.25413469018,
        "timestamp": "2025-12-27T11:23:19.549106+00:00",
        "meta_object_name": "EUTELSAT 70B",
        "meta_object_id": "2012-069A",
        "meta_epoch": "2025-12-27T03:03:57.796128",
        "meta_mean_motion": 1.00271037,
        "meta_eccentricity": 0.0004165,
        "meta_inclination": 0.0611,
        "meta_ra_of_asc_node": 352.4186,
        "meta_arg_of_pericenter": 264.9069,
        "meta_mean_anomaly": 315.0196,
        "meta_ephemeris_type": 0,
        "meta_classification_type": "U",
        "meta_norad_cat_id": 39020,
        "meta_element_set_no": 999,
        "meta_rev_at_epoch": 4778,
        "meta_bstar": 0,
        "meta_mean_motion_dot": -2.1e-07,
        "meta_mean_motion_ddot": 0,
        "tle_line1": "1 39020U 12069A   25361.12775227 -.00000021  00000+0  00000+0 0  9994",
        "tle_line2": "2 39020   0.0611 352.4186 0004165 264.9069 315.0196  1.00271037 47787"
      },
      "geometry": {
        "type": "Point",
        "coordinates": [
          -22.433723098741474,
          -0.023951180171762204
        ]
      }
    },
    {
      "type": "Feature",
      "properties": {
        "norad_id": 39122,
        "name": "EUTELSAT 117 WEST A",
        "group": "eutelsat",
        "lat": 0.00860388483235089,
        "lon": 150.20123153600724,
        "alt_km": 35794.01913249867,
        "timestamp": "2025-12-27T11:23:19.549119+00:00",
        "meta_object_name": "EUTELSAT 117 WEST A",
        "meta_object_id": "2013-012A",
        "meta_epoch": "2025-12-27T02:10:25.425120",
        "meta_mean_motion": 1.00270814,
        "meta_eccentricity": 0.0002869,
        "meta_inclination": 0.0147,
        "meta_ra_of_asc_node": 334.3903,
        "meta_arg_of_pericenter": 305.0792,
        "meta_mean_anomaly": 92.162,
        "meta_ephemeris_type": 0,
        "meta_classification_type": "U",
        "meta_norad_cat_id": 39122,
        "meta_element_set_no": 999,
        "meta_rev_at_epoch": 4670,
        "meta_bstar": 0,
        "meta_mean_motion_dot": 1e-07,
        "meta_mean_motion_ddot": 0,
        "tle_line1": "1 39122U 13012A   25361.09057205  .00000010  00000+0  00000+0 0  9998",
        "tle_line2": "2 39122   0.0147 334.3903 0002869 305.0792  92.1620  1.00270814 46707"
      },
      "geometry": {
        "type": "Point",
        "coordinates": [
          150.20123153600724,
          0.00860388483235089
        ]
      }
    },
    {
      "type": "Feature",
      "properties": {
        "norad_id": 39163,
        "name": "EUTELSAT 7B",
        "group": "eutelsat",
        "lat": -0.08515749988629254,
        "lon": -86.01717674811508,
        "alt_km": 35772.57434803533,
        "timestamp": "2025-12-27T11:23:19.549131+00:00",
        "meta_object_name": "EUTELSAT 7B",
        "meta_object_id": "2013-022A",
        "meta_epoch": "2025-12-27T02:45:44.542368",
        "meta_mean_motion": 1.00271932,
        "meta_eccentricity": 0.0004772,
        "meta_inclination": 0.0671,
        "meta_ra_of_asc_node": 13.2831,
        "meta_arg_of_pericenter": 308.949,
        "meta_mean_anomaly": 182.0483,
        "meta_ephemeris_type": 0,
        "meta_classification_type": "U",
        "meta_norad_cat_id": 39163,
        "meta_element_set_no": 999,
        "meta_rev_at_epoch": 4622,
        "meta_bstar": 0,
        "meta_mean_motion_dot": 7e-07,
        "meta_mean_motion_ddot": 0,
        "tle_line1": "1 39163U 13022A   25361.11509887  .00000070  00000+0  00000+0 0  9991",
        "tle_line2": "2 39163   0.0671  13.2831 0004772 308.9490 182.0483  1.00271932 46224"
      },
      "geometry": {
        "type": "Point",
        "coordinates": [
          -86.01717674811508,
          -0.08515749988629254
        ]
      }
    },
    {
      "type": "Feature",
      "properties": {
        "norad_id": 39612,
        "name": "EXPRESS-AT1",
        "group": "eutelsat",
        "lat": -0.0017248433025692524,
        "lon": -36.972146743736964,
        "alt_km": 35789.509719672125,
        "timestamp": "2025-12-27T11:23:19.549143+00:00",
        "meta_object_name": "EXPRESS-AT1",
        "meta_object_id": "2014-010A",
        "meta_epoch": "2025-12-27T04:42:15.496416",
        "meta_mean_motion": 1.002729,
        "meta_eccentricity": 8.93e-05,
        "meta_inclination": 0.0153,
        "meta_ra_of_asc_node": 289.8864,
        "meta_arg_of_pericenter": 213.189,
        "meta_mean_anomaly": 79.4173,
        "meta_ephemeris_type": 0,
        "meta_classification_type": "U",
        "meta_norad_cat_id": 39612,
        "meta_element_set_no": 999,
        "meta_rev_at_epoch": 4309,
        "meta_bstar": 0,
        "meta_mean_motion_dot": 1.01e-06,
        "meta_mean_motion_ddot": 0,
        "tle_line1": "1 39612U 14010A   25361.19601269  .00000101  00000+0  00000+0 0  9998",
        "tle_line2": "2 39612   0.0153 289.8864 0000893 213.1890  79.4173  1.00272900 43099"
      },
      "geometry": {
        "type": "Point",
        "coordinates": [
          -36.972146743736964,
          -0.0017248433025692524
        ]
      }
    },
    {
      "type": "Feature",
      "properties": {
        "norad_id": 39613,
        "name": "EXPRESS-AT2",
        "group": "eutelsat",
        "lat": 0.028885093647086652,
        "lon": 46.90249559764171,
        "alt_km": 35791.01675730562,
        "timestamp": "2025-12-27T11:23:19.549166+00:00",
        "meta_object_name": "EXPRESS-AT2",
        "meta_object_id": "2014-010B",
        "meta_epoch": "2025-12-27T05:06:28.176768",
        "meta_mean_motion": 1.00270807,
        "meta_eccentricity": 0.0001702,
        "meta_inclination": 0.0177,
        "meta_ra_of_asc_node": 326.4541,
        "meta_arg_of_pericenter": 310.4356,
        "meta_mean_anomaly": 35.5342,
        "meta_ephemeris_type": 0,
        "meta_classification_type": "U",
        "meta_norad_cat_id": 39613,
        "meta_element_set_no": 999,
        "meta_rev_at_epoch": 4277,
        "meta_bstar": 0,
        "meta_mean_motion_dot": -2.59e-06,
        "meta_mean_motion_ddot": 0,
        "tle_line1": "1 39613U 14010B   25361.21282612 -.00000259  00000+0  00000+0 0  9994",
        "tle_line2": "2 39613   0.0177 326.4541 0001702 310.4356  35.5342  1.00270807 42773"
      },
      "geometry": {
        "type": "Point",
        "coordinates": [
          46.90249559764171,
          0.028885093647086652
        ]
      }
    }
  ]
}